RAVAN                   
1 41849U 16067B   18331.21107994  .00001251  00000-0  11114-3 0  9995
2 41849  97.9241  62.3781 0007599 352.4552   7.6554 14.98004369111535
CELTEE 1                
1 41850U 16067C   18331.20080337  .00000677  00000-0  64218-4 0  9992
2 41850  97.9211  61.5148 0008168 351.2572   8.8505 14.96903298111484
OPTICUBE 04             
1 41851U 16067D   18331.18331746  .00000046  00000-0  93567-5 0  9993
2 41851  97.9202  61.3629 0008502 350.5562   9.5497 14.96729333111473
AEROCUBE 8D             
1 41852U 16067E   18331.23729541 -.00000260  00000-0 -17483-4 0  9996
2 41852  97.9218  61.2482 0009406 350.0030  10.1002 14.96593545111469
AEROCUBE 8C             
1 41853U 16067F   18331.18851166  .00000318  00000-0  33239-4 0  9999
2 41853  97.9213  61.1501 0009536 351.2926   8.8128 14.96555360111452
PROMETHEUS 2-1          
1 41854U 16067G   18331.24782562  .00000260  00000-0  28070-4 0  9993
2 41854  97.9220  61.2654 0009884 349.6451  10.4564 14.96710142111466
PROMETHEUS 2-3          
1 41855U 16067H   18331.45113682  .00000361  00000-0  36914-4 0  9996
2 41855  97.9222  61.4798 0009995 349.3650  10.7358 14.96710161111499
ITF-2                   
1 41932U 98067KU  18330.90174068  .00137789  18864-4  31068-3 0  9996
2 41932  51.6237 212.9181 0005618 156.7941 203.3322 15.97347207106559
INS-1B                  
1 41954U 17008G   18330.64745976  .00001129  00000-0  50338-4 0  9998
2 41954  97.4278  33.1155 0010488 136.4551 223.7516 15.23428570 98736
BGUSAT                  
1 41999U 17008BD  18331.16073851  .00001993  00000-0  82070-4 0  9998
2 41999  97.4331  35.2078 0009245 148.8053 211.3736 15.25268994 98264
DIDO-2                  
1 42000U 17008BE  18330.90260354  .00000836  00000-0  37971-4 0  9994
2 42000  97.4293  33.8696 0009351 151.6993 208.4753 15.23519027 98178
PEASSS                  
1 42015U 17008BV  18330.92274549  .00001097  00000-0  47659-4 0  9997
2 42015  97.4294  34.5513 0007117 154.8706 205.2879 15.24389786 98707
AL-FARABI 1             
1 42016U 17008BW  18330.86628383  .00001341  00000-0  56776-4 0  9992
2 42016  97.4305  34.8258 0007003 154.7565 205.4016 15.24899821 98831
NAYIF-1 (EO-88)         
1 42017U 17008BX  18331.44838796  .00001334  00000-0  56456-4 0  9996
2 42017  97.4302  35.4116 0007021 153.0313 207.1291 15.24928909 98948
HAVELSAT                
1 42700U 98067LH  18331.54535862  .00061740  00000-0  25932-3 0  9999
2 42700  51.6262 232.4509 0005671 148.5479 211.5864 15.84902667 87795
CXBN-2                  
1 42704U 98067LM  18331.11264761  .00069871  00000-0  30114-3 0  9994
2 42704  51.6292 236.3730 0004556 124.7565 235.3868 15.84321819 87628
PHOENIX                 
1 42706U 98067LP  18331.14275333  .00034228  00000-0  20298-3 0  9996
2 42706  51.6288 241.1329 0003215 103.9099 256.2259 15.77700962 87555
X-CUBESAT               
1 42707U 98067LQ  18330.95541612  .00087092  00000-0  31598-3 0  9993
2 42707  51.6264 233.6549 0004827 136.1319 224.0070 15.87785567 87620
QBEE50-LTU-OC           
1 42708U 98067LR  18331.00109227  .00066947  00000-0  28591-3 0  9998
2 42708  51.6272 236.3389 0004006 134.8156 225.3174 15.84533689 87559
ALTAIR PATHFINDER       
1 42711U 98067LS  18331.42070724  .00016772  00000-0  14365-3 0  9992
2 42711  51.6344 254.3560 0004755  88.2757 271.8785 15.69558699 87065
SHARC                   
1 42712U 98067LT  18331.31751306  .00039241  00000-0  27460-3 0  9999
2 42712  51.6349 254.4754 0004375 104.6462 255.5022 15.73832752 87299
ZA-AEROSAT              
1 42713U 98067LU  18331.13197589  .00034200  00000-0  21738-3 0  9999
2 42713  51.6340 245.5764 0003908 101.6378 258.5061 15.76124832 87154
CSUNSAT 1               
1 42715U 98067LW  18331.17201600  .00040422  00000-0  23825-3 0  9997
2 42715  51.6337 243.6051 0005062 100.8063 259.3507 15.77746771 87185
SPACECUBE               
1 42717U 98067LY  18330.97946307  .00065000  00000-0  28089-3 0  9992
2 42717  51.6226 236.8573 0005088 143.7114 216.4235 15.84290759 86626
HOOPOE                  
1 42718U 98067LZ  18330.81207523  .00207310  28739-4  43267-3 0  9996
2 42718  51.6215 228.1007 0006247 160.9545 199.1699 15.98573109 86728
NJUST-1                 
1 42722U 98067MB  18331.27415707  .00026189  00000-0  18184-3 0  9997
2 42722  51.6366 247.9032 0006529 122.7732 316.2246 15.74221642 86203
UNSW-ECO                
1 42723U 98067MC  18331.21427093  .00761709  34763-3  62792-3 0  9997
2 42723  51.6329 222.6393 0006683 188.5185 171.5718 16.13337959 86519
LILACSAT-1              
1 42725U 98067ME  18331.36030271  .00049822  00000-0  25588-3 0  9994
2 42725  51.6365 240.1158 0005936 126.7387 338.3732 15.80696372 86220
NSIGHT-1                
1 42726U 98067MF  18331.22483105  .00008220  00000-0  87902-4 0  9994
2 42726  51.6384 263.6819 0005962 118.2689 241.8908 15.64870472 85900
SNUSAT-1                
1 42727U 98067MG  18331.23472180  .00047126  00000-0  24536-3 0  9998
2 42727  51.6311 240.9104 0006749 112.4193 247.7524 15.80414615 86165
I-INSPIRE II            
1 42731U 98067ML  18328.65367517  .20606057  12514-4  45736-3 0  9990
2 42731  51.6195 233.0809 0005495 228.6465 131.7518 16.46306360 85922
POLYITAN-2-SAU          
1 42732U 98067MM  18330.92960223  .00081395  00000-0  30218-3 0  9999
2 42732  51.6283 235.0585 0006128 118.4827 241.6795 15.87334281 86102
SNUSAT-1B               
1 42733U 98067MN  18331.15042807  .00064265  00000-0  30299-3 0  9991
2 42733  51.6276 238.8453 0006519 111.6644 248.5054 15.82435366 86077
BEEAGLESAT              
1 42736U 98067MR  18330.99984036  .00039164  00000-0  22296-3 0  9992
2 42736  51.6307 243.8967 0006659 126.0011 234.1608 15.78527093 86052
UCLSAT                  
1 42765U 17036A   18330.85791828  .00001117  00000-0  51561-4 0  9996
2 42765  97.3811  27.9366 0010614 219.8091 140.2368 15.22245754 79456
LITUANICASAT-2          
1 42768U 17036D   18331.34845511  .00001804  00000-0  81860-4 0  9991
2 42768  97.3834  27.9718 0014764 208.9690 151.0728 15.22004573 79372
AALTO-1                 
1 42775U 17036L   18331.46434385  .00000629  00000-0  31418-4 0  9993
2 42775  97.3801  27.7171 0013387 206.8794 153.1750 15.21008379 79316
URSA MAIOR              
1 42776U 17036M   18331.11221764  .00000746  00000-0  36561-4 0  9995
2 42776  97.3808  27.4606 0013183 208.2329 151.8193 15.21115282 79260
COMPASS 2               
1 42777U 17036N   18330.60122941  .00001375  00000-0  62747-4 0  9990
2 42777  97.3838  27.6460 0011937 212.1362 147.9148 15.22246283 79218
DIAMOND RED             
1 42783U 17036U   18330.83611569  .00000878  00000-0  41714-4 0  9999
2 42783  97.3812  27.6699 0011254 220.4862 139.5538 15.21789186 79246
PEGASUS                 
1 42784U 17036V   18330.85089566  .00000996  00000-0  46553-4 0  9995
2 42784  97.3814  27.8132 0011164 220.2642 139.7768 15.22032538 79258
DIAMOND GREEN           
1 42785U 17036W   18330.83489399  .00000888  00000-0  42143-4 0  9993
2 42785  97.3814  27.6867 0011148 221.0964 138.9434 15.21788545 79234
DIAMOND BLUE            
1 42786U 17036X   18330.89970831  .00000897  00000-0  42549-4 0  9996
2 42786  97.3813  27.7498 0010982 221.0156 139.0255 15.21790920 79326
NUDTSAT                 
1 42787U 17036Y   18331.15917849  .00001662  00000-0  74069-4 0  9990
2 42787  97.3846  28.4982 0009850 228.3091 131.7304 15.22778452 79162
SUCHAI                  
1 42788U 17036Z   18330.90765964  .00001218  00000-0  55748-4 0  9992
2 42788  97.3817  28.0443 0010785 219.3526 140.6927 15.22365827 79349
SKCUBE                  
1 42789U 17036AA  18330.91254109  .00001133  00000-0  52157-4 0  9995
2 42789  97.3814  28.0259 0010635 219.3037 140.7428 15.22299968 79263
VZLUSAT-1               
1 42790U 17036AB  18330.81826841  .00001473  00000-0  65989-4 0  9998
2 42790  97.3823  28.1674 0010269 219.1322 140.9173 15.22786363 79264
ROBUSTA-1B              
1 42792U 17036AD  18330.60208857  .00001087  00000-0  49957-4 0  9996
2 42792  97.3814  27.8187 0010157 221.1423 138.9049 15.22457389 79231
CICERO 6                
1 42793U 17036AE  18331.47330251  .00000842  00000-0  39632-4 0  9994
2 42793  97.3801  28.5989 0009375 218.8718 141.1845 15.22203455 79431
D-SAT                   
1 42794U 17036AF  18330.86313040  .00000177  00000-0  20607-4 0  9997
2 42794  97.5705  19.1891 0128396 100.6742 260.8965 14.90974838 77967
TOKI                    
1 42820U 98067MU  18330.92479039  .00036327  00000-0  21969-3 0  9995
2 42820  51.6327 247.9261 0004125 100.9459 259.2006 15.77224349 79478
MAZAALAI (NUMSAT-1)     
1 42822U 98067MW  18330.87328757  .00035354  00000-0  21976-3 0  9998
2 42822  51.6348 249.0986 0004479  99.5920 260.5586 15.76613485 79412
BRAC ONNESHA            
1 42823U 98067MX  18330.85150297  .00036434  00000-0  22354-3 0  9990
2 42823  51.6307 248.9724 0005959  97.6652 262.5025 15.76885024 79411
NIGERIAEDUSAT-1         
1 42824U 98067MY  18330.84416271  .00035446  00000-0  22209-3 0  9998
2 42824  51.6354 249.7072 0006239 103.6314 256.5381 15.76419416 79397
CORVUS BC2              
1 42846U 17042X   18331.19222550  .00000316  00000-0  36536-4 0  9997
2 42846  97.5831 228.0369 0010180  21.8875 338.2777 14.91888921 74672
CORVUS BC1              
1 42847U 17042Y   18331.42734015  .00000035  00000-0  88083-5 0  9991
2 42847  97.5831 228.3371 0009805  21.0449 339.1172 14.91988785 74702
SILU-1 (SILKROAD 1)     
1 42903U 17021F   18331.39061228  .00042004  00000-0  19814-3 0  9992
2 42903  42.7757  53.1408 0014997  17.3878  25.9150 15.82152439 75685
MIRATA                  
1 43015U 17073C   18330.73921752  .00000926  00000-0  77231-4 0  9993
2 43015  97.7121 255.0111 0258300 102.1107 260.9170 14.78499343 55150
MAKERSAT 0              
1 43016U 17073D   18331.33791900  .00000627  00000-0  53790-4 0  9993
2 43016  97.7153 255.7535 0260046 100.3158 262.7478 14.78397193 55239
